     2.100          NAVIGATION                              RINEX VERSION / TYPE
fic2rin                                 12/28/2009 01:37:42 PGM / RUN BY / DATE
                                                            END OF HEADER
22 09 12 27 17 59 44.0  .182955060154D-03 -.795807864051D-12  .000000000000D+00
     .600000000000D+01  .104562500000D+03  .512771358985D-08 -.194192503252D+00
     .549852848053D-05  .516269670334D-02  .547058880329D-05  .515366684914D+04
     .647840000000D+05 -.111758708954D-07  .308066508677D+01  .391155481339D-07
     .937394965623D+00  .261812500000D+03 -.188111757713D+01 -.853321258541D-08
     .642883921553D-11  .100000000000D+01  .156400000000D+04  .000000000000D+00
     .240000000000D+01  .000000000000D+00 -.176951289177D-07  .600000000000D+01
     .576060000000D+05  .400000000000D+01
 1 09 12 27 18  0  0.0 -.740885734558D-04 -.295585778076D-11  .000000000000D+00
     .600000000000D+02 -.150937500000D+02  .573559605345D-08  .950368927755D+00
    -.922009348869D-06  .383219122887D-02  .870041549206D-05  .515365890884D+04
     .648000000000D+05 -.428408384323D-07 -.972219835830D-01  .447034835815D-07
     .963423505450D+00  .212125000000D+03  .947081594298D+00 -.798247535928D-08
     .457876215239D-09  .100000000000D+01  .156400000000D+04  .000000000000D+00
     .240000000000D+01  .630000000000D+02 -.190921127796D-07  .600000000000D+02
     .576060000000D+05  .400000000000D+01
 2 09 12 27 18  0  0.0  .208627432585D-03  .443378667114D-11  .000000000000D+00
     .250000000000D+02  .259375000000D+02  .495342061557D-08 -.165450952441D+01
     .136904418468D-05  .924987276085D-02  .103153288364D-04  .515375520706D+04
     .648000000000D+05 -.726431608200D-07  .198822539055D+01 -.121071934700D-06
     .940105754287D+00  .170187500000D+03  .293146689365D+01 -.809819446516D-08
    -.283940398686D-09  .100000000000D+01  .156400000000D+04  .000000000000D+00
     .240000000000D+01  .000000000000D+00 -.172294676304D-07  .250000000000D+02
     .576060000000D+05  .400000000000D+01
 3 09 12 27 18  0  0.0  .493753235787D-03  .522959453519D-11  .000000000000D+00
     .700000000000D+02 -.793750000000D+01  .561737684344D-08 -.186877390447D+01
    -.491738319397D-06  .127446206752D-01  .584311783314D-05  .515367093849D+04
     .648000000000D+05  .199303030968D-06  .837449640076D+00 -.670552253723D-07
     .926604007885D+00  .243281250000D+03  .974980496834D+00 -.832891836145D-08
     .114647632677D-09  .100000000000D+01  .156400000000D+04  .000000000000D+00
     .240000000000D+01  .000000000000D+00 -.419095158577D-08  .700000000000D+02
     .576060000000D+05  .400000000000D+01
 4 09 12 27 18  0  0.0 -.427887309343D-03 -.188720150618D-10  .000000000000D+00
     .490000000000D+02  .310937500000D+02  .495770650838D-08  .125442921786D+01
     .190921127796D-05  .911954347976D-02  .109374523163D-04  .515360465050D+04
     .648000000000D+05 -.115483999252D-06  .200630963567D+01  .856816768646D-07
     .939287228215D+00  .158468750000D+03  .580566066153D+00 -.817498337801D-08
    -.538951020902D-09  .100000000000D+01  .156400000000D+04  .000000000000D+00
     .240000000000D+01  .000000000000D+00 -.605359673500D-08  .490000000000D+02
     .576060000000D+05  .400000000000D+01
 5 09 12 27 18  0  0.0 -.233510509133D-04  .466116034659D-11  .000000000000D+00
     .310000000000D+02  .109687500000D+03  .448911556111D-08 -.241921965478D+00
     .566802918911D-05  .178767356556D-02  .662542879581D-05  .515362502670D+04
     .648000000000D+05 -.111758708954D-07  .304661885179D+01  .149011611938D-07
     .960658638557D+00  .250125000000D+03  .286753468913D+00 -.810426614664D-08
     .253581991279D-10  .100000000000D+01  .156400000000D+04  .000000000000D+00
     .240000000000D+01  .000000000000D+00 -.884756445885D-08  .310000000000D+02
     .576060000000D+05  .400000000000D+01
 6 09 12 27 18  0  0.0  .262814108282D-03 -.113686837722D-11  .000000000000D+00
     .860000000000D+02 -.111875000000D+02  .555165982034D-08  .416807032452D+00
    -.692903995514D-06  .583846122026D-02  .656209886074D-05  .515365494919D+04
     .648000000000D+05 -.372529029846D-07  .906826496529D+00 -.707805156708D-07
     .933951803596D+00  .240437500000D+03 -.118018847332D+01 -.852606943073D-08
    -.582167106740D-10  .100000000000D+01  .156400000000D+04  .000000000000D+00
     .240000000000D+01  .000000000000D+00 -.512227416039D-08  .860000000000D+02
     .576060000000D+05  .400000000000D+01
 7 09 12 27 18  0  0.0  .528758391738D-05 -.682121026330D-12  .000000000000D+00
     .720000000000D+02 -.118687500000D+03  .403659671188D-08  .290264857051D+01
    -.606290996075D-05  .323406071402D-02  .842660665512D-05  .515373566246D+04
     .648000000000D+05 -.447034835815D-07 -.113671775142D+01  .186264514923D-07
     .969923927808D+00  .222062500000D+03  .306318620593D+01 -.782318300983D-08
     .128576784311D-10  .100000000000D+01  .156400000000D+04  .000000000000D+00
     .240000000000D+01  .000000000000D+00 -.107102096081D-07  .720000000000D+02
     .576060000000D+05  .400000000000D+01
 8 09 12 27 18  0  0.0  .142632052302D-05  .454747350886D-12  .000000000000D+00
     .890000000000D+02 -.116781250000D+03  .353371862214D-08  .230929997676D+01
    -.585243105888D-05  .109866046114D-01  .924989581108D-05  .515374100113D+04
     .648000000000D+05 -.134110450745D-06 -.107191870357D+01  .173225998878D-06
     .991240636717D+00  .219718750000D+03  .307664744413D+01 -.753531387607D-08
    -.360729311538D-10  .100000000000D+01  .156400000000D+04  .000000000000D+00
     .485000000000D+01  .000000000000D+00 -.372529029846D-08  .890000000000D+02
     .576060000000D+05  .400000000000D+01
 9 09 12 27 18  0  0.0  .965013168752D-04  .216004991671D-11  .000000000000D+00
     .470000000000D+02 -.101500000000D+03  .372729811407D-08  .212355485403D+01
    -.543333590031D-05  .206326274201D-01  .734440982342D-05  .515362298775D+04
     .648000000000D+05  .339001417160D-06 -.116920928338D+01 -.212341547012D-06
     .978735074622D+00  .244656250000D+03  .152375588728D+01 -.749316926343D-08
    -.289297764699D-10  .100000000000D+01  .156400000000D+04  .000000000000D+00
     .240000000000D+01  .000000000000D+00 -.558793544769D-08  .470000000000D+02
     .576060000000D+05  .400000000000D+01
13 09 12 27 18  0  0.0  .306634232402D-03  .113686837722D-12  .000000000000D+00
     .990000000000D+02 -.333125000000D+02  .400909556635D-08 -.935623011951D+00
    -.174157321453D-05  .397453957703D-02  .212900340557D-05  .515360878754D+04
     .648000000000D+05 -.484287738800D-07 -.212183055785D+01  .707805156708D-07
     .993794201186D+00  .356625000000D+03  .164373411750D+01 -.815998275318D-08
    -.154649298907D-09  .100000000000D+01  .156400000000D+04  .000000000000D+00
     .340000000000D+01  .000000000000D+00 -.111758708954D-07  .990000000000D+02
     .576060000000D+05  .400000000000D+01
14 09 12 27 18  0  0.0 -.703148543835D-05  .454747350886D-11  .000000000000D+00
     .540000000000D+02 -.264687500000D+02  .412660046090D-08 -.106803083054D+01
    -.136904418468D-05  .507059507072D-02  .271387398243D-05  .515368820953D+04
     .648000000000D+05  .391155481339D-07 -.214268457502D+01  .968575477600D-07
     .987168591077D+00  .342375000000D+03 -.209606325130D+01 -.814498212834D-08
    -.174292974288D-09  .100000000000D+01  .156400000000D+04  .000000000000D+00
     .240000000000D+01  .000000000000D+00 -.884756445885D-08  .540000000000D+02
     .576060000000D+05  .400000000000D+01
15 09 12 27 18  0  0.0 -.316320452839D-03  .159161572810D-11  .000000000000D+00
     .790000000000D+02 -.149062500000D+02  .475662670402D-08 -.904287467614D+00
    -.784173607826D-06  .221689522732D-02  .175461173058D-05  .515370467949D+04
     .648000000000D+05 -.204890966415D-07 -.220194772142D+01 -.633299350739D-07
     .954982500317D+00  .344000000000D+03 -.405748354853D+00 -.843392273531D-08
    -.882179603464D-10  .100000000000D+01  .156400000000D+04  .000000000000D+00
     .240000000000D+01  .000000000000D+00 -.977888703346D-08  .790000000000D+02
     .576060000000D+05  .400000000000D+01
17 09 12 27 18  0  0.0  .115807168186D-03  .352429196937D-11  .000000000000D+00
     .150000000000D+02 -.114687500000D+02  .500163690968D-08 -.570820566728D+00
    -.540167093277D-06  .492875406053D-02  .638328492641D-05  .515375710487D+04
     .648000000000D+05  .651925802231D-07  .976058279785D+00  .540167093277D-07
     .959697243905D+00  .255843750000D+03 -.263402730848D+01 -.816284001505D-08
    -.835749098019D-10  .100000000000D+01  .156400000000D+04  .000000000000D+00
     .240000000000D+01  .000000000000D+00 -.102445483208D-07  .150000000000D+02
     .576060000000D+05  .400000000000D+01
18 09 12 27 18  0  0.0  .376966781914D-04  .272848410532D-11  .000000000000D+00
     .590000000000D+02  .107500000000D+03  .502556647787D-08  .832594074531D+00
     .569410622120D-05  .109040384414D-01  .600330531597D-05  .515366235542D+04
     .648000000000D+05 -.763684511185D-07  .307543128815D+01  .132247805595D-06
     .939718009313D+00  .253468750000D+03 -.235684768458D+01 -.854749889478D-08
    -.102147111980D-09  .100000000000D+01  .156400000000D+04  .000000000000D+00
     .240000000000D+01  .000000000000D+00 -.107102096081D-07  .590000000000D+02
     .576060000000D+05  .400000000000D+01
19 09 12 27 18  0  0.0 -.624777749181D-05 -.204636307899D-11  .000000000000D+00
     .920000000000D+02 -.875000000000D+01  .496056377025D-08 -.122137659537D+01
    -.663101673126D-06  .598950567655D-02  .678375363350D-05  .515367440033D+04
     .648000000000D+05 -.186264514923D-08  .103150482360D+01 -.875443220139D-07
     .957323545214D+00  .246656250000D+03 -.186141087832D+00 -.812676708390D-08
    -.603596570791D-10  .100000000000D+01  .156400000000D+04  .000000000000D+00
     .240000000000D+01  .000000000000D+00 -.144354999065D-07  .920000000000D+02
     .576060000000D+05  .400000000000D+01
